{
  "norad_id": 66225,
  "name": "STARLINK-35734",
  "history": [
    {
      "epoch": "2026-03-28T12:57:15.703776",
      "apogee_km": 476.0705159598674,
      "perigee_km": 474.2598735200163,
      "latitude_deg": -52.66297227247205,
      "longitude_deg": 134.31744863977656,
      "semi_major_axis_km": 6853.302194739941,
      "eccentricity": 0.0001321,
      "inclination_deg": 53.1598,
      "raan_deg": 142.4862,
      "arg_perigee_deg": 82.7243,
      "mean_anomaly_deg": 277.3908,
      "mean_motion_rev_day": 15.30216704
    }
  ]
}